[{"OBJECT_NAME":"STARLINK-1569","OBJECT_ID":"2020-055N","EPOCH":"2026-03-10T00:00:02.999808","MEAN_MOTION":15.18469415,"ECCENTRICITY":0.00021467,"INCLINATION":53.1037,"RA_OF_ASC_NODE":124.869,"ARG_OF_PERICENTER":70.9863,"MEAN_ANOMALY":37.8804,"EPHEMERIS_TYPE":0,"CLASSIFICATION_TYPE":"U","NORAD_CAT_ID":46039,"ELEMENT_SET_NO":999,"REV_AT_EPOCH":579,"BSTAR":0.0056656927,"MEAN_MOTION_DOT":0.00119854,"MEAN_MOTION_DDOT":0},{"OBJECT_NAME":"TRANSPORTER-15 OBJECT M","OBJECT_ID":"2025-276M","EPOCH":"2026-03-09T17:11:37.076640","MEAN_MOTION":15.2015215,"ECCENTRICITY":0.00045268,"INCLINATION":97.4249,"RA_OF_ASC_NODE":144.0134,"ARG_OF_PERICENTER":15.0949,"MEAN_ANOMALY":345.0421,"EPHEMERIS_TYPE":0,"CLASSIFICATION_TYPE":"U","NORAD_CAT_ID":66677,"ELEMENT_SET_NO":999,"REV_AT_EPOCH":1532,"BSTAR":0.00078021993,"MEAN_MOTION_DOT":0.0001684,"MEAN_MOTION_DDOT":0}]
